{
  "type": "FeatureCollection",
  "features": [
    {
      "type": "Feature",
      "properties": {
        "norad_id": 66569,
        "name": "STARLINK-35835",
        "group": "last-30-days",
        "lat": -7.934286700359105,
        "lon": 78.39822068654114,
        "alt_km": 415.3925841609298,
        "timestamp": "2025-12-18T13:51:48.378511+00:00",
        "meta_object_name": "STARLINK-35835",
        "meta_object_id": "2025-268N",
        "meta_epoch": "2025-12-18T04:38:17.741760",
        "meta_mean_motion": 15.50619099,
        "meta_eccentricity": 2.062e-05,
        "meta_inclination": 42.9974,
        "meta_ra_of_asc_node": 89.2499,
        "meta_arg_of_pericenter": 317.9673,
        "meta_mean_anomaly": 42.1171,
        "meta_ephemeris_type": 0,
        "meta_classification_type": "U",
        "meta_norad_cat_id": 66569,
        "meta_element_set_no": 999,
        "meta_rev_at_epoch": 547,
        "meta_bstar": 0.0011190745,
        "meta_mean_motion_dot": 0.00065958,
        "meta_mean_motion_ddot": 0,
        "tle_line1": "1 66569U 25268N   25352.19326090  .00065958  00000+0  11191-2 0  9999",
        "tle_line2": "2 66569  42.9974  89.2499 0000206 317.9673  42.1171 15.50619099  5471"
      },
      "geometry": {
        "type": "Point",
        "coordinates": [
          78.39822068654114,
          -7.934286700359105
        ]
      }
    },
    {
      "type": "Feature",
      "properties": {
        "norad_id": 66570,
        "name": "STARLINK-35834",
        "group": "last-30-days",
        "lat": -6.637973346022842,
        "lon": 79.82055592238069,
        "alt_km": 415.2833598760344,
        "timestamp": "2025-12-18T13:51:48.378523+00:00",
        "meta_object_name": "STARLINK-35834",
        "meta_object_id": "2025-268P",
        "meta_epoch": "2025-12-18T06:10:33.333600",
        "meta_mean_motion": 15.50629464,
        "meta_eccentricity": 1.625e-05,
        "meta_inclination": 42.9965,
        "meta_ra_of_asc_node": 88.87,
        "meta_arg_of_pericenter": 20.7347,
        "meta_mean_anomaly": 339.352,
        "meta_ephemeris_type": 0,
        "meta_classification_type": "U",
        "meta_norad_cat_id": 66570,
        "meta_element_set_no": 999,
        "meta_rev_at_epoch": 548,
        "meta_bstar": 0.00097294209,
        "meta_mean_motion_dot": 0.00057258,
        "meta_mean_motion_ddot": 0,
        "tle_line1": "1 66570U 25268P   25352.25733025  .00057258  00000+0  97294-3 0  9991",
        "tle_line2": "2 66570  42.9965  88.8700 0000162  20.7347 339.3520 15.50629464  5488"
      },
      "geometry": {
        "type": "Point",
        "coordinates": [
          79.82055592238069,
          -6.637973346022842
        ]
      }
    },
    {
      "type": "Feature",
      "properties": {
        "norad_id": 66571,
        "name": "STARLINK-35836",
        "group": "last-30-days",
        "lat": -5.369603898293465,
        "lon": 81.20111915014395,
        "alt_km": 415.1699673695066,
        "timestamp": "2025-12-18T13:51:48.378541+00:00",
        "meta_object_name": "STARLINK-35836",
        "meta_object_id": "2025-268Q",
        "meta_epoch": "2025-12-18T03:04:32.750112",
        "meta_mean_motion": 15.50588696,
        "meta_eccentricity": 0.00015752,
        "meta_inclination": 43.0015,
        "meta_ra_of_asc_node": 89.6197,
        "meta_arg_of_pericenter": 271.0321,
        "meta_mean_anomaly": 89.0359,
        "meta_ephemeris_type": 0,
        "meta_classification_type": "U",
        "meta_norad_cat_id": 66571,
        "meta_element_set_no": 999,
        "meta_rev_at_epoch": 546,
        "meta_bstar": 0.00039751228,
        "meta_mean_motion_dot": 0.00023055,
        "meta_mean_motion_ddot": 0,
        "tle_line1": "1 66571U 25268Q   25352.12815683  .00023055  00000+0  39751-3 0  9991",
        "tle_line2": "2 66571  43.0015  89.6197 0001575 271.0321  89.0359 15.50588696  5466"
      },
      "geometry": {
        "type": "Point",
        "coordinates": [
          81.20111915014395,
          -5.369603898293465
        ]
      }
    },
    {
      "type": "Feature",
      "properties": {
        "norad_id": 66572,
        "name": "STARLINK-35870",
        "group": "last-30-days",
        "lat": -4.106541455770178,
        "lon": 82.5667466309771,
        "alt_km": 415.1776327889356,
        "timestamp": "2025-12-18T13:51:48.378553+00:00",
        "meta_object_name": "STARLINK-35870",
        "meta_object_id": "2025-268R",
        "meta_epoch": "2025-12-18T00:00:02.000160",
        "meta_mean_motion": 15.50550087,
        "meta_eccentricity": 0.00015408,
        "meta_inclination": 43.001,
        "meta_ra_of_asc_node": 90.3647,
        "meta_arg_of_pericenter": 269.8549,
        "meta_mean_anomaly": 96.0357,
        "meta_ephemeris_type": 0,
        "meta_classification_type": "U",
        "meta_norad_cat_id": 66572,
        "meta_element_set_no": 999,
        "meta_rev_at_epoch": 551,
        "meta_bstar": 0.00029129984,
        "meta_mean_motion_dot": 0.00016766,
        "meta_mean_motion_ddot": 0,
        "tle_line1": "1 66572U 25268R   25352.00002315  .00016766  00000+0  29130-3 0  9990",
        "tle_line2": "2 66572  43.0010  90.3647 0001540 269.8549  96.0357 15.50550087  5515"
      },
      "geometry": {
        "type": "Point",
        "coordinates": [
          82.5667466309771,
          -4.106541455770178
        ]
      }
    },
    {
      "type": "Feature",
      "properties": {
        "norad_id": 66573,
        "name": "STARLINK-35650",
        "group": "last-30-days",
        "lat": -2.79697497995064,
        "lon": 83.97647051619556,
        "alt_km": 415.27688446568027,
        "timestamp": "2025-12-18T13:51:48.378566+00:00",
        "meta_object_name": "STARLINK-35650",
        "meta_object_id": "2025-268S",
        "meta_epoch": "2025-12-18T06:00:02.999808",
        "meta_mean_motion": 15.50491115,
        "meta_eccentricity": 0.00014392,
        "meta_inclination": 43.001,
        "meta_ra_of_asc_node": 88.8982,
        "meta_arg_of_pericenter": 259.975,
        "meta_mean_anomaly": 65.1216,
        "meta_ephemeris_type": 0,
        "meta_classification_type": "U",
        "meta_norad_cat_id": 66573,
        "meta_element_set_no": 999,
        "meta_rev_at_epoch": 555,
        "meta_bstar": 0.0018755575,
        "meta_mean_motion_dot": 0.00110912,
        "meta_mean_motion_ddot": 0,
        "tle_line1": "1 66573U 25268S   25352.25003472  .00110912  00000+0  18756-2 0  9992",
        "tle_line2": "2 66573  43.0010  88.8982 0001439 259.9750  65.1216 15.50491115  5552"
      },
      "geometry": {
        "type": "Point",
        "coordinates": [
          83.97647051619556,
          -2.79697497995064
        ]
      }
    },
    {
      "type": "Feature",
      "properties": {
        "norad_id": 66574,
        "name": "STARLINK-35812",
        "group": "last-30-days",
        "lat": -1.4582928874284729,
        "lon": 85.40943592273675,
        "alt_km": 414.6172451482071,
        "timestamp": "2025-12-18T13:51:48.378578+00:00",
        "meta_object_name": "STARLINK-35812",
        "meta_object_id": "2025-268T",
        "meta_epoch": "2025-12-17T23:57:33.792192",
        "meta_mean_motion": 15.50579362,
        "meta_eccentricity": 2.71e-05,
        "meta_inclination": 42.9991,
        "meta_ra_of_asc_node": 90.3647,
        "meta_arg_of_pericenter": 316.509,
        "meta_mean_anomaly": 43.5748,
        "meta_ephemeris_type": 0,
        "meta_classification_type": "U",
        "meta_norad_cat_id": 66574,
        "meta_element_set_no": 999,
        "meta_rev_at_epoch": 544,
        "meta_bstar": 0.0011917303,
        "meta_mean_motion_dot": 0.00070201,
        "meta_mean_motion_ddot": 0,
        "tle_line1": "1 66574U 25268T   25351.99830778  .00070201  00000+0  11917-2 0  9998",
        "tle_line2": "2 66574  42.9991  90.3647 0000271 316.5090  43.5748 15.50579362  5444"
      },
      "geometry": {
        "type": "Point",
        "coordinates": [
          85.40943592273675,
          -1.4582928874284729
        ]
      }
    },
    {
      "type": "Feature",
      "properties": {
        "norad_id": 66575,
        "name": "STARLINK-35810",
        "group": "last-30-days",
        "lat": -0.08360884110564865,
        "lon": 86.87922959274158,
        "alt_km": 414.58967641685194,
        "timestamp": "2025-12-18T13:51:48.378591+00:00",
        "meta_object_name": "STARLINK-35810",
        "meta_object_id": "2025-268U",
        "meta_epoch": "2025-12-17T23:57:03.017376",
        "meta_mean_motion": 15.5059527,
        "meta_eccentricity": 0.00023812,
        "meta_inclination": 43.0049,
        "meta_ra_of_asc_node": 90.3605,
        "meta_arg_of_pericenter": 264.7173,
        "meta_mean_anomaly": 95.3416,
        "meta_ephemeris_type": 0,
        "meta_classification_type": "U",
        "meta_norad_cat_id": 66575,
        "meta_element_set_no": 999,
        "meta_rev_at_epoch": 544,
        "meta_bstar": 0.0010970118,
        "meta_mean_motion_dot": 0.00064588,
        "meta_mean_motion_ddot": 0,
        "tle_line1": "1 66575U 25268U   25351.99795159  .00064588  00000+0  10970-2 0  9991",
        "tle_line2": "2 66575  43.0049  90.3605 0002381 264.7173  95.3416 15.50595270  5448"
      },
      "geometry": {
        "type": "Point",
        "coordinates": [
          86.87922959274158,
          -0.08360884110564865
        ]
      }
    }
  ]
}